[{"OBJECT_NAME":"STARLINK-5069","OBJECT_ID":"2023-021N","EPOCH":"2026-03-09T16:45:13.956480","MEAN_MOTION":14.98330184,"ECCENTRICITY":0.00032556,"INCLINATION":70.0013,"RA_OF_ASC_NODE":184.3951,"ARG_OF_PERICENTER":267.8989,"MEAN_ANOMALY":92.1798,"EPHEMERIS_TYPE":0,"CLASSIFICATION_TYPE":"U","NORAD_CAT_ID":55640,"ELEMENT_SET_NO":999,"REV_AT_EPOCH":16879,"BSTAR":-7.833443e-6,"MEAN_MOTION_DOT":-1.86e-6,"MEAN_MOTION_DDOT":0},{"OBJECT_NAME":"SHIYAN-24C 03","OBJECT_ID":"2023-206C","EPOCH":"2026-03-09T21:23:43.281888","MEAN_MOTION":14.97896938,"ECCENTRICITY":0.0002411,"INCLINATION":97.3969,"RA_OF_ASC_NODE":41.7507,"ARG_OF_PERICENTER":66.6237,"MEAN_ANOMALY":293.524,"EPHEMERIS_TYPE":0,"CLASSIFICATION_TYPE":"U","NORAD_CAT_ID":58652,"ELEMENT_SET_NO":999,"REV_AT_EPOCH":12043,"BSTAR":0.00011928,"MEAN_MOTION_DOT":1.35e-5,"MEAN_MOTION_DDOT":0}]
