STARLINK-5069           
1 55640U 23021N   26068.69807820 -.00000186  00000+0 -78334-5 0  9996
2 55640  70.0013 184.3951 0003256 267.8989  92.1798 14.98330184168797
SHIYAN-24C 03           
1 58652U 23206C   26068.89147317  .00001350  00000+0  11928-3 0  9993
2 58652  97.3969  41.7507 0002411  66.6237 293.5240 14.97896938120432
